ONEWEB-0102             
1 47258U 20100A   25046.81789495 -.00000272  00000+0 -79065-3 0  9999
2 47258  87.8821  87.5135 0002018  92.4948 267.6411 13.12440431200932
ONEWEB-0109             
1 47259U 20100B   25046.82600559 -.00000437  00000+0 -12500-2 0  9997
2 47259  87.8821  87.4788 0001982  94.5039 265.6316 13.12442753200761
ONEWEB-0110             
1 47260U 20100C   25046.85196540  .00000209  00000+0  54576-3 0  9997
2 47260  87.8815  87.4653 0002077  97.0147 263.1218 13.12442543200931
ONEWEB-0111             
1 47261U 20100D   25046.80654277  .00000091  00000+0  21836-3 0  9991
2 47261  87.8821  87.4830 0001969  94.6795 265.4559 13.12439962200762
ONEWEB-0114             
1 47262U 20100E   25046.83736195 -.00000305  00000+0 -88338-3 0  9995
2 47262  87.8816  87.4816 0002063  86.0635 274.0729 13.12442916200729
ONEWEB-0117             
1 47263U 20100F   25046.82924781 -.00000402  00000+0 -11541-2 0  9994
2 47263  87.8821  87.4691 0001910  97.2748 262.8598 13.12442362200731
ONEWEB-0118             
1 47264U 20100G   25046.86170186  .00000403  00000+0  10857-2 0  9999
2 47264  87.8820  87.4650 0001776  85.9728 274.1604 13.12441543200934
ONEWEB-0119             
1 47265U 20100H   25046.81303086 -.00000088  00000+0 -28055-3 0  9993
2 47265  87.8821  87.5138 0001974  96.4349 263.7004 13.12440638200903
